ONEWEB-0531             
1 54146U 22138AK  24161.28560554  .00000132  00000+0  29181-3 0  9994
2 54146  87.9222  61.2489 0001830  44.9636 315.1645 13.20772023 81906
ONEWEB-0535             
1 54147U 22138AL  24161.30609678  .00001892  00000+0  46939-2 0  9992
2 54147  87.9153  91.8010 0001990  73.0140 287.1211 13.19716588 79512
ONEWEB-0536             
1 54148U 22138AM  24161.27298869  .00000093  00000+0  19698-3 0  9990
2 54148  87.9218  61.3011 0001186  50.5895 309.5343 13.20772219 81896
ONEWEB-0527             
1 54642U 22166A   24161.58557662  .00000086  00000+0  17774-3 0  9998
2 54642  87.9293  30.8254 0001935  79.7786 280.3566 13.21825859 74099
ONEWEB-0528             
1 54643U 22166B   24161.13770364  .00000096  00000+0  20014-3 0  9998
2 54643  87.9300  30.9011 0002018  83.2039 276.9325 13.21825943 74048
ONEWEB-0539             
1 54644U 22166C   24161.17397036  .00000024  00000+0  27780-4 0  9993
2 54644  87.9301  30.8961 0001761  88.5762 271.5574 13.21826858 74041
ONEWEB-0540             
1 54645U 22166D   24161.62263624 -.00000015  00000+0 -67495-4 0  9998
2 54645  87.9295  30.8256 0001851  91.8878 268.2468 13.21825375 74099
ONEWEB-0542             
1 54646U 22166E   24161.56191823  .00000086  00000+0  17739-3 0  9994
2 54646  87.9300  30.8187 0001507  94.7059 265.4247 13.21826772 74097
